<osmChange version="0.6" generator="iD"><create/><modify><node id="7447727367" lon="112.8867708" lat="9.5455367" version="19"><tag k="capital" v="10"/><tag k="name" v="永暑社区"/><tag k="name:en" v="Yongshu Community"/><tag k="name:vi" v="永暑社区"/><tag k="name:zh-Hans" v="永暑社区"/><tag k="name:zh-Hant" v="永暑社區"/><tag k="place" v="suburb"/><tag k="place:CN" v="neighbourhood"/></node><node id="4531648296" lon="112.8869688" lat="9.5453158" version="59"><tag k="capital" v="6"/><tag k="description" v="This is an administrative unit that includes only the part controlled by China."/><tag k="name" v="南沙区"/><tag k="name:de" v="Nansha"/><tag k="name:en" v="Nansha District"/><tag k="name:es" v="Nansha"/><tag k="name:eu" v="Nansha Barrutia"/><tag k="name:fa" v="ناحیه نانشا"/><tag k="name:fr" v="District de Nansha"/><tag k="name:hak" v="南沙區"/><tag k="name:it" v="Distretto di Nansha"/><tag k="name:ja" v="南沙区"/><tag k="name:ko" v="난사구"/><tag k="name:nan" v="Lâm-soa-khu"/><tag k="name:nan-Hans" v="南沙区"/><tag k="name:nan-Latn-pehoeji" v="Lâm-soa-khu"/><tag k="name:nan-Latn-tailo" v="Lâm-sua-khu"/><tag k="name:no" v="Nansha"/><tag k="name:pl" v="Nansha"/><tag k="name:ru" v="Наньша"/><tag k="name:tr" v="Nansha Bölgesi"/><tag k="name:uk" v="Наньша"/><tag k="name:ur" v="نانشا ضلع"/><tag k="name:vi" v="Quần đảo Trường Sa"/><tag k="name:zh" v="南沙区"/><tag k="name:zh-Hans" v="南沙区"/><tag k="name:zh-Hant" v="南沙區"/><tag k="note" v="Geographical concepts of the Spratly Islands Please refer to the relationship:https://www.openstreetmap.org/relation/4856843/"/><tag k="official_name" v="Quần đảo Trường Sa"/><tag k="old_name" v="南沙群岛"/><tag k="place" v="city"/><tag k="place:CN" v="district"/><tag k="source" v="http://www.stats.gov.cn/tjsj/tjbz/tjyqhdmhcxhfdm/2013/46/4603.html"/><tag k="wikidata" v="Q90987538"/><tag k="wikipedia" v="vi:南沙区 (三沙市)"/></node><way id="425005617" version="15"><nd ref="4243543271"/><nd ref="4243543266"/><nd ref="4243543246"/><nd ref="4243543255"/><nd ref="6712208307"/><nd ref="6712208309"/><nd ref="6712208310"/><nd ref="6712208308"/><nd ref="4243543271"/><tag k="building" v="yes"/><tag k="name" v="Ủy ban quản lý Hoàng Sa"/><tag k="name:en" v="Ủy ban quản lý Hoàng Sa"/><tag k="name:vi" v="Ủy ban quản lý Hoàng Sa"/><tag k="name:zh" v="Ủy ban quản lý Hoàng Sa"/><tag k="name:zh-Hans" v="Ủy ban quản lý Hoàng Sa"/><tag k="name:zh-Hant" v="Ủy ban quản lý Hoàng Sa"/><tag k="office" v="government"/></way></modify><delete if-unused="true"/></osmChange>